NAVSTAR 51 (USA 166)    
1 27663U 03005A   26060.42736949  .00000002  00000+0  00000+0 0  9990
2 27663  54.9080 219.2478 0148736  52.6971 318.8246  2.00566372169159
NAVSTAR 54 (USA 177)    
1 28190U 04009A   26060.37363995  .00000005  00000+0  00000+0 0  9995
2 28190  54.9186 280.0421 0110828 168.9880 319.7388  2.00558119160784
NAVSTAR 56 (USA 180)    
1 28474U 04045A   26060.35727227 -.00000088  00000+0  00000+0 0  9992
2 28474  55.1965 329.2420 0170887 312.7031 227.4565  2.00573160156263
NAVSTAR 57 (USA 183)    
1 28874U 05038A   26060.35549066  .00000009  00000+0  00000+0 0  9994
2 28874  54.9654 277.5282 0128882 295.2964 203.9501  2.00573138149679
METEOSAT-9 (MSG-2)      
1 28912U 05049B   26060.10419640  .00000110  00000+0  00000+0 0  9999
2 28912   9.1173  55.2137 0002005 217.8487 329.0293  1.00275370  5910
NAVSTAR 59 (USA 192)    
1 29601U 06052A   26059.72354957  .00000010  00000+0  00000+0 0  9994
2 29601  54.9584 218.3028 0087934  89.3093 271.6592  2.00551333141237
NAVSTAR 60 (USA 196)    
1 32260U 07047A   26060.03053530  .00000012  00000+0  00000+0 0  9995
2 32260  54.0129  84.5227 0163578  85.9294 276.0062  2.00560826134641
NAVSTAR 61 (USA 199)    
1 32384U 07062A   26060.09338891  .00000011  00000+0  00000+0 0  9990
2 32384  55.1174 278.4968 0032837 160.6293  12.9281  2.00553256133344
GOES 14                 
1 35491U 09033A   26060.47385824  .00000113  00000+0  00000+0 0  9995
2 35491   1.4111  84.4609 0002111 292.5107 156.2773  1.00122694  5511
EWS-G2 (GOES 15)        
1 36411U 10008A   26060.49991909  .00000003  00000+0  00000+0 0  9999
2 36411   1.0016  85.1993 0001592  25.3190 292.2522  1.00268747 58559
GSAT0101 (GALILEO-PFM)  
1 37846U 11060A   26053.46432651 -.00000082  00000+0  00000+0 0  9992
2 37846  57.0318 344.8758 0003975 357.0591   2.9533  1.70475478 89166
GSAT0102 (GALILEO-FM2)  
1 37847U 11060B   26053.09802566 -.00000081  00000+0  00000+0 0  9997
2 37847  57.0325 344.8861 0005461 338.0997 202.6314  1.70475770 89162
LUCH-5A                 
1 37951U 11074B   26060.37539352 -.00000063  00000+0  00000+0 0  9997
2 37951   8.4794  75.3923 0004129 240.3052 145.6667  1.00274828 51979
METEOSAT-10 (MSG-3)     
1 38552U 12035B   26060.30457892 -.00000021  00000+0  00000+0 0  9998
2 38552   4.4162  61.4751 0002456 289.6555 277.8404  1.00276482 49772
METOP-B                 
1 38771U 12049A   26060.42046838  .00000143  00000+0  85191-4 0  9996
2 38771  98.6660 113.9985 0001291 310.6780  49.4285 14.21441529697958
NAVSTAR 67 (USA 239)    
1 38833U 12053A   26060.12692792 -.00000023  00000+0  00000+0 0  9992
2 38833  53.5655 148.0278 0176907  64.7622 297.0835  2.00565715 97273
GSAT0103 (GALILEO-FM3)  
1 38857U 12055A   26059.37062073  .00000009  00000+0  00000+0 0  9991
2 38857  55.7357 104.5311 0005306 284.5770  75.4441  1.70473336 83153
NAVSTAR 68 (USA 242)    
1 39166U 13023A   26059.99178260  .00000017  00000+0  00000+0 0  9994
2 39166  54.5885 273.3798 0141528  49.8622 311.4171  2.00564138 93710
INSAT-3D                
1 39216U 13038B   26060.46155991 -.00000357  00000+0  00000+0 0  9994
2 39216   1.6477  83.9536 0002206 234.1493 136.7787  1.00269668 46005
NAVSTAR 69 (USA 248)    
1 39533U 14008A   26059.99006589 -.00000028  00000+0  00000+0 0  9993
2 39533  53.6376 153.7343 0082182 228.1724 131.1354  2.00552830 87512
LUCH-5V                 
1 39727U 14023A   26060.51213063 -.00000285  00000+0  00000+0 0  9997
2 39727   4.8670  70.8004 0002930 272.5610  95.0329  1.00272584 43285
NAVSTAR 70 (USA 251)    
1 39741U 14026A   26060.26839326 -.00000096  00000+0  00000+0 0  9994
2 39741  56.5480 335.7218 0039909 324.3215  35.4388  2.00568795 86370
NAVSTAR 71 (USA 256)    
1 40105U 14045A   26059.35845854  .00000016  00000+0  00000+0 0  9993
2 40105  55.2783  92.7996 0031587 120.5582 239.8250  2.00551177 83896
GSAT0201 (GALILEO 5)    
1 40128U 14050A   26057.38590622  .00000013  00000+0  00000+0 0  9992
2 40128  48.9939 277.9705 1656870 175.1037 186.7695  1.85519850 76268
GSAT0202 (GALILEO 6)    
1 40129U 14050B   26058.18083150  .00000012  00000+0  00000+0 0  9994
2 40129  49.0095 277.0224 1657890 175.8719 185.7122  1.85520639 78441
NAVSTAR 72 (USA 258)    
1 40294U 14068A   26060.23406430 -.00000062  00000+0  00000+0 0  9991
2 40294  56.9172  35.1139 0062653  68.0452 292.6136  2.00569484 83042
COSMOS 2501 [GLONASS-K] 
1 40315U 14075A   26060.37097795 -.00000015  00000+0  00000+0 0  9996
2 40315  63.6172 194.1013 0020702 205.6418 154.2159  2.13101119 87557
NAVSTAR 73 (USA 260)    
1 40534U 15013A   26060.36526662 -.00000012  00000+0  00000+0 0  9998
2 40534  53.1869 208.6351 0108721  39.7688 320.9703  2.00557717 79661
GSAT0203 (GALILEO 7)    
1 40544U 15017A   26058.52158611 -.00000103  00000+0  00000+0 0  9994
2 40544  56.8234 344.5881 0005161 295.0116  64.9415  1.70475495 67337
GSAT0204 (GALILEO 8)    
1 40545U 15017B   26058.19060141 -.00000102  00000+0  00000+0 0  9997
2 40545  56.8295 344.6151 0004389 286.3298  73.6287  1.70475370 30371
NAVSTAR 74 (USA 262)    
1 40730U 15033A   26060.52586451  .00000011  00000+0  00000+0 0  9996
2 40730  54.0667 271.5237 0114429  28.9222 331.7504  2.00561672 77834
